GPS BIIF-11             
1 41019U 15062A   26065.07188428 -.00000079  00000+0  00000+0 0  9991
2 41019  56.8940  34.7837 0111447 231.5087 127.4745  2.00567113 75765
ELEKTRO-L 2             
1 41105U 15074A   26065.29348885 -.00000120  00000+0  00000+0 0  9996
2 41105   6.4359  71.7901 0003316 241.1196 302.2488  1.00271019 37471
GSAT0209 (GALILEO 12)   
1 41174U 15079A   26064.80003714  .00000008  00000+0  00000+0 0  9996
2 41174  55.7602 104.0969 0004738 323.5937  36.4535  1.70474567 63014
GSAT0208 (GALILEO 11)   
1 41175U 15079B   26062.08735472  .00000015  00000+0  00000+0 0  9996
2 41175  55.7569 104.1685 0004163 323.7694  36.2890  1.70474318 63383
GPS BIIF-12             
1 41328U 16007A   26065.15731702 -.00000004  00000+0  00000+0 0  9990
2 41328  55.4568  93.5431 0095478 246.0454 113.0115  2.00556710 73778
GSAT0211 (GALILEO 14)   
1 41549U 16030A   26064.55763471  .00000016  00000+0  00000+0 0  9994
2 41549  55.1310 224.5419 0003581  25.3389 334.6168  1.70473873 60900
GSAT0210 (GALILEO 13)   
1 41550U 16030B   26064.81491220  .00000018  00000+0  00000+0 0  9997
2 41550  55.1283 224.5329 0001200 195.2538 164.6814  1.70473987 60905
INSAT-3DR               
1 41752U 16054A   26065.16842830 -.00000082  00000+0  00000+0 0  9995
2 41752   0.0518  95.4837 0013110 186.5629  16.4609  1.00272637 34780
GSAT0207 (GALILEO 15)   
1 41859U 16069A   26059.22748061  .00000008  00000+0  00000+0 0  9997
2 41859  55.4267 104.1007 0005031 309.1503  50.8842  1.70474383 57546
GSAT0212 (GALILEO 16)   
1 41860U 16069B   26062.01395955  .00000014  00000+0  00000+0 0  9997
2 41860  55.4261 104.0186 0003622 335.7588  24.3106  1.70474657 57847
GSAT0213 (GALILEO 17)   
1 41861U 16069C   26064.72771418  .00000008  00000+0  00000+0 0  9993
2 41861  55.4302 103.9512 0005236 292.7393  67.2847  1.70474970 57750
GSAT0214 (GALILEO 18)   
1 41862U 16069D   26059.00795760  .00000007  00000+0  00000+0 0  9994
2 41862  55.4250 104.1026 0004132 296.1582  63.8775  1.70474701 57785
GOES 16                 
1 41866U 16071A   26065.20430845 -.00000096  00000+0  00000+0 0  9999
2 41866   0.1424  89.5183 0002414 221.6288 181.6256  1.00271914 34070
GSAT-17                 
1 42815U 17040B   26064.31634419 -.00000266  00000+0  00000+0 0  9994
2 42815   0.0381 296.1388 0004948 351.8585  82.4276  1.00269840 31745
GSAT0215 (GALILEO 19)   
1 43055U 17079A   26062.43085966  .00000010  00000+0  00000+0 0  9997
2 43055  55.1080 224.4135 0000631  13.1955 346.7446  1.70474475 51181
GSAT0216 (GALILEO 20)   
1 43056U 17079B   26063.89524153  .00000013  00000+0  00000+0 0  9998
2 43056  55.1080 224.3734 0001703 320.6652  39.2594  1.70474648 51222
GSAT0217 (GALILEO 21)   
1 43057U 17079C   26064.70257924  .00000017  00000+0  00000+0 0  9993
2 43057  55.1077 224.3490 0002058 354.7865   5.1497  1.70474572 51226
